[{"OBJECT_NAME":"STARLINK-3204","OBJECT_ID":"2021-115AM","EPOCH":"2026-03-09T11:37:56.995680","MEAN_MOTION":15.08833857,"ECCENTRICITY":0.00013375,"INCLINATION":53.2168,"RA_OF_ASC_NODE":140.0392,"ARG_OF_PERICENTER":100.259,"MEAN_ANOMALY":259.8553,"EPHEMERIS_TYPE":0,"CLASSIFICATION_TYPE":"U","NORAD_CAT_ID":49759,"ELEMENT_SET_NO":999,"REV_AT_EPOCH":23564,"BSTAR":8.113884e-6,"MEAN_MOTION_DOT":-1.59e-6,"MEAN_MOTION_DDOT":0},{"OBJECT_NAME":"STEP 2","OBJECT_ID":"1994-029A","EPOCH":"2026-03-09T19:35:47.124096","MEAN_MOTION":14.90069818,"ECCENTRICITY":0.0082455,"INCLINATION":81.9356,"RA_OF_ASC_NODE":275.268,"ARG_OF_PERICENTER":225.1907,"MEAN_ANOMALY":134.2589,"EPHEMERIS_TYPE":0,"CLASSIFICATION_TYPE":"U","NORAD_CAT_ID":23105,"ELEMENT_SET_NO":999,"REV_AT_EPOCH":70508,"BSTAR":0.00037800709,"MEAN_MOTION_DOT":3.917e-5,"MEAN_MOTION_DDOT":0}]
